{"type": "FeatureCollection", "features": [ {"type": "Feature", "properties": {"norad_id": 38552, "name": "METEOSAT-10 (MSG-3)", "group": "weather", "lat": 0.5181537393887916, "lon": -125.6556645659452, "alt_km": 35783.873821560985, "timestamp": "2025-12-02T10:50:46.915191+00:00", "meta": {"OBJECT_NAME": "METEOSAT-10 (MSG-3)", "OBJECT_ID": "2012-035B", "EPOCH": "2025-12-02T01:48:01.931040", "MEAN_MOTION": 1.002722, "ECCENTRICITY": 6.88e-05, "INCLINATION": 4.2018, "RA_OF_ASC_NODE": 61.7375, "ARG_OF_PERICENTER": 218.9493, "MEAN_ANOMALY": 177.6056, "EPHEMERIS_TYPE": 0, "CLASSIFICATION_TYPE": "U", "NORAD_CAT_ID": 38552, "ELEMENT_SET_NO": 999, "REV_AT_EPOCH": 4888, "BSTAR": 0, "MEAN_MOTION_DOT": 1.3e-07, "MEAN_MOTION_DDOT": 0}, "tle": {"line1": "1 38552U 12035B   25336.07502235  .00000013  00000+0  00000+0 0  9999", "line2": "2 38552   4.2018  61.7375 0000688 218.9493 177.6056  1.00272200 48881"}}, "geometry": {"type": "Point", "coordinates": [-125.6556645659452, 0.5181537393887916]}}, {"type": "Feature", "properties": {"norad_id": 38771, "name": "METOP-B", "group": "weather", "lat": 33.64968982661386, "lon": 20.747198328420243, "alt_km": 819.6476309610171, "timestamp": "2025-12-02T10:50:46.915203+00:00", "meta": {"OBJECT_NAME": "METOP-B", "OBJECT_ID": "2012-049A", "EPOCH": "2025-12-02T03:55:43.360320", "MEAN_MOTION": 14.21401861, "ECCENTRICITY": 0.0002426, "INCLINATION": 98.6815, "RA_OF_ASC_NODE": 26.3011, "ARG_OF_PERICENTER": 168.3274, "MEAN_ANOMALY": 191.796, "EPHEMERIS_TYPE": 0, "CLASSIFICATION_TYPE": "U", "NORAD_CAT_ID": 38771, "ELEMENT_SET_NO": 999, "REV_AT_EPOCH": 68527, "BSTAR": 0.00010156, "MEAN_MOTION_DOT": 1.78e-06, "MEAN_MOTION_DDOT": 0}, "tle": {"line1": "1 38771U 12049A   25336.16369630  .00000178  00000+0  10156-3 0  9996", "line2": "2 38771  98.6815  26.3011 0002426 168.3274 191.7960 14.21401861685272"}}, "geometry": {"type": "Point", "coordinates": [20.747198328420243, 33.64968982661386]}}, {"type": "Feature", "properties": {"norad_id": 39216, "name": "INSAT-3D", "group": "weather", "lat": -1.38078567143588, "lon": 3.7516999803833464, "alt_km": 35789.85248075463, "timestamp": "2025-12-02T10:50:46.915216+00:00", "meta": {"OBJECT_NAME": "INSAT-3D", "OBJECT_ID": "2013-038B", "EPOCH": "2025-12-01T21:16:46.376832", "MEAN_MOTION": 1.00274665, "ECCENTRICITY": 0.0001693, "INCLINATION": 1.4142, "RA_OF_ASC_NODE": 85.1158, "ARG_OF_PERICENTER": 151.5313, "MEAN_ANOMALY": 283.0475, "EPHEMERIS_TYPE": 0, "CLASSIFICATION_TYPE": "U", "NORAD_CAT_ID": 39216, "ELEMENT_SET_NO": 999, "REV_AT_EPOCH": 4510, "BSTAR": 0, "MEAN_MOTION_DOT": -3.17e-06, "MEAN_MOTION_DDOT": 0}, "tle": {"line1": "1 39216U 13038B   25335.88664788 -.00000317  00000+0  00000+0 0  9999", "line2": "2 39216   1.4142  85.1158 0001693 151.5313 283.0475  1.00274665 45101"}}, "geometry": {"type": "Point", "coordinates": [3.7516999803833464, -1.38078567143588]}}, {"type": "Feature", "properties": {"norad_id": 39260, "name": "FENGYUN 3C", "group": "weather", "lat": 46.76218458483786, "lon": 143.75803107832195, "alt_km": 836.5931799602131, "timestamp": "2025-12-02T10:50:46.915228+00:00", "meta": {"OBJECT_NAME": "FENGYUN 3C", "OBJECT_ID": "2013-052A", "EPOCH": "2025-12-02T05:07:57.533376", "MEAN_MOTION": 14.15690888, "ECCENTRICITY": 0.0013777, "INCLINATION": 98.4752, "RA_OF_ASC_NODE": 314.4078, "ARG_OF_PERICENTER": 227.755, "MEAN_ANOMALY": 132.2457, "EPHEMERIS_TYPE": 0, "CLASSIFICATION_TYPE": "U", "NORAD_CAT_ID": 39260, "ELEMENT_SET_NO": 999, "REV_AT_EPOCH": 63069, "BSTAR": 9.3899e-05, "MEAN_MOTION_DOT": 1.43e-06, "MEAN_MOTION_DDOT": 0}, "tle": {"line1": "1 39260U 13052A   25336.21386034  .00000143  00000+0  93899-4 0  9996", "line2": "2 39260  98.4752 314.4078 0013777 227.7550 132.2457 14.15690888630695"}}, "geometry": {"type": "Point", "coordinates": [143.75803107832195, 46.76218458483786]}}, {"type": "Feature", "properties": {"norad_id": 40069, "name": "METEOR-M 2", "group": "weather", "lat": -79.35570392427515, "lon": 81.80863442697665, "alt_km": 824.8384240725145, "timestamp": "2025-12-02T10:50:46.915239+00:00", "meta": {"OBJECT_NAME": "METEOR-M 2", "OBJECT_ID": "2014-037A", "EPOCH": "2025-12-02T04:32:29.693184", "MEAN_MOTION": 14.21379759, "ECCENTRICITY": 0.0004673, "INCLINATION": 98.4891, "RA_OF_ASC_NODE": 314.1788, "ARG_OF_PERICENTER": 245.2749, "MEAN_ANOMALY": 114.7943, "EPHEMERIS_TYPE": 0, "CLASSIFICATION_TYPE": "U", "NORAD_CAT_ID": 40069, "ELEMENT_SET_NO": 999, "REV_AT_EPOCH": 59133, "BSTAR": 0.00010402, "MEAN_MOTION_DOT": 1.85e-06, "MEAN_MOTION_DDOT": 0}, "tle": {"line1": "1 40069U 14037A   25336.18923256  .00000185  00000+0  10402-3 0  9992", "line2": "2 40069  98.4891 314.1788 0004673 245.2749 114.7943 14.21379759591333"}}, "geometry": {"type": "Point", "coordinates": [81.80863442697665, -79.35570392427515]}}, {"type": "Feature", "properties": {"norad_id": 40267, "name": "HIMAWARI-8", "group": "weather", "lat": 0.016525318758936376, "lon": 14.923778441133281, "alt_km": 35786.5112429023, "timestamp": "2025-12-02T10:50:46.915251+00:00", "meta": {"OBJECT_NAME": "HIMAWARI-8", "OBJECT_ID": "2014-060A", "EPOCH": "2025-12-01T23:02:40.271712", "MEAN_MOTION": 1.00272528, "ECCENTRICITY": 0.0001254, "INCLINATION": 0.0469, "RA_OF_ASC_NODE": 138.9757, "ARG_OF_PERICENTER": 139.8382, "MEAN_ANOMALY": 278.6103, "EPHEMERIS_TYPE": 0, "CLASSIFICATION_TYPE": "U", "NORAD_CAT_ID": 40267, "ELEMENT_SET_NO": 999, "REV_AT_EPOCH": 4078, "BSTAR": 0, "MEAN_MOTION_DOT": -2.54e-06, "MEAN_MOTION_DDOT": 0}, "tle": {"line1": "1 40267U 14060A   25335.96018833 -.00000254  00000+0  00000+0 0  9996", "line2": "2 40267   0.0469 138.9757 0001254 139.8382 278.6103  1.00272528 40789"}}, "geometry": {"type": "Point", "coordinates": [14.923778441133281, 0.016525318758936376]}}, {"type": "Feature", "properties": {"norad_id": 40367, "name": "FENGYUN 2G", "group": "weather", "lat": -5.036728305400934, "lon": -26.050035111454715, "alt_km": 35782.61759487594, "timestamp": "2025-12-02T10:50:46.915263+00:00", "meta": {"OBJECT_NAME": "FENGYUN 2G", "OBJECT_ID": "2014-090A", "EPOCH": "2025-12-01T19:25:27.039072", "MEAN_MOTION": 1.00268232, "ECCENTRICITY": 0.0003012, "INCLINATION": 5.1381, "RA_OF_ASC_NODE": 75.2239, "ARG_OF_PERICENTER": 193.0179, "MEAN_ANOMALY": 193.7823, "EPHEMERIS_TYPE": 0, "CLASSIFICATION_TYPE": "U", "NORAD_CAT_ID": 40367, "ELEMENT_SET_NO": 999, "REV_AT_EPOCH": 4002, "BSTAR": 0, "MEAN_MOTION_DOT": -2.82e-06, "MEAN_MOTION_DDOT": 0}, "tle": {"line1": "1 40367U 14090A   25335.80934073 -.00000282  00000+0  00000+0 0  9997", "line2": "2 40367   5.1381  75.2239 0003012 193.0179 193.7823  1.00268232 40027"}}, "geometry": {"type": "Point", "coordinates": [-26.050035111454715, -5.036728305400934]}}, {"type": "Feature", "properties": {"norad_id": 40732, "name": "METEOSAT-11 (MSG-4)", "group": "weather", "lat": 0.36976206172578285, "lon": -116.31151267784955, "alt_km": 35783.34452752103, "timestamp": "2025-12-02T10:50:46.915295+00:00", "meta": {"OBJECT_NAME": "METEOSAT-11 (MSG-4)", "OBJECT_ID": "2015-034A", "EPOCH": "2025-12-02T03:33:27.033120", "MEAN_MOTION": 1.00277401, "ECCENTRICITY": 2.62e-05, "INCLINATION": 2.7091, "RA_OF_ASC_NODE": 72.0283, "ARG_OF_PERICENTER": 161.8961, "MEAN_ANOMALY": 260.1399, "EPHEMERIS_TYPE": 0, "CLASSIFICATION_TYPE": "U", "NORAD_CAT_ID": 40732, "ELEMENT_SET_NO": 999, "REV_AT_EPOCH": 524, "BSTAR": 0, "MEAN_MOTION_DOT": 8.4e-07, "MEAN_MOTION_DDOT": 0}, "tle": {"line1": "1 40732U 15034A   25336.14822955  .00000084  00000+0  00000+0 0  9994", "line2": "2 40732   2.7091  72.0283 0000262 161.8961 260.1399  1.00277401  5244"}}, "geometry": {"type": "Point", "coordinates": [-116.31151267784955, 0.36976206172578285]}}, {"type": "Feature", "properties": {"norad_id": 41105, "name": "ELEKTRO-L 2", "group": "weather", "lat": 3.371332428624392, "lon": -140.16392514732743, "alt_km": 35775.45601724188, "timestamp": "2025-12-02T10:50:46.915312+00:00", "meta": {"OBJECT_NAME": "ELEKTRO-L 2", "OBJECT_ID": "2015-074A", "EPOCH": "2025-12-02T01:43:47.338752", "MEAN_MOTION": 1.00269907, "ECCENTRICITY": 0.0003937, "INCLINATION": 6.1965, "RA_OF_ASC_NODE": 72.9528, "ARG_OF_PERICENTER": 196.8313, "MEAN_ANOMALY": 172.831, "EPHEMERIS_TYPE": 0, "CLASSIFICATION_TYPE": "U", "NORAD_CAT_ID": 41105, "ELEMENT_SET_NO": 999, "REV_AT_EPOCH": 3653, "BSTAR": 0, "MEAN_MOTION_DOT": -9.8e-07, "MEAN_MOTION_DDOT": 0}, "tle": {"line1": "1 41105U 15074A   25336.07207568 -.00000098  00000+0  00000+0 0  9998", "line2": "2 41105   6.1965  72.9528 0003937 196.8313 172.8310  1.00269907 36539"}}, "geometry": {"type": "Point", "coordinates": [-140.16392514732743, 3.371332428624392]}}, {"type": "Feature", "properties": {"norad_id": 41752, "name": "INSAT-3DR", "group": "weather", "lat": -0.04312648477879683, "lon": -51.633515939573726, "alt_km": 35739.922271259464, "timestamp": "2025-12-02T10:50:46.915325+00:00", "meta": {"OBJECT_NAME": "INSAT-3DR", "OBJECT_ID": "2016-054A", "EPOCH": "2025-12-02T02:08:59.925408", "MEAN_MOTION": 1.00269631, "ECCENTRICITY": 0.0014376, "INCLINATION": 0.0638, "RA_OF_ASC_NODE": 89.7219, "ARG_OF_PERICENTER": 179.0448, "MEAN_ANOMALY": 268.7222, "EPHEMERIS_TYPE": 0, "CLASSIFICATION_TYPE": "U", "NORAD_CAT_ID": 41752, "ELEMENT_SET_NO": 999, "REV_AT_EPOCH": 3384, "BSTAR": 0, "MEAN_MOTION_DOT": -5.6e-07, "MEAN_MOTION_DDOT": 0}, "tle": {"line1": "1 41752U 16054A   25336.08958247 -.00000056  00000+0  00000+0 0  9997", "line2": "2 41752   0.0638  89.7219 0014376 179.0448 268.7222  1.00269631 33843"}}, "geometry": {"type": "Point", "coordinates": [-51.633515939573726, -0.04312648477879683]}}]}